[{"OBJECT_NAME":"STARLINK-3323","OBJECT_ID":"2022-001B","EPOCH":"2026-03-09T18:07:26.813280","MEAN_MOTION":15.08842876,"ECCENTRICITY":0.00013146,"INCLINATION":53.2149,"RA_OF_ASC_NODE":158.8293,"ARG_OF_PERICENTER":101.3232,"MEAN_ANOMALY":258.7908,"EPHEMERIS_TYPE":0,"CLASSIFICATION_TYPE":"U","NORAD_CAT_ID":50804,"ELEMENT_SET_NO":999,"REV_AT_EPOCH":23055,"BSTAR":0.00059139469,"MEAN_MOTION_DOT":9.137e-5,"MEAN_MOTION_DDOT":0},{"OBJECT_NAME":"ONEWEB-0618","OBJECT_ID":"2023-004V","EPOCH":"2026-03-09T21:27:12.326688","MEAN_MOTION":15.11974897,"ECCENTRICITY":0.00107842,"INCLINATION":86.9069,"RA_OF_ASC_NODE":217.8931,"ARG_OF_PERICENTER":307.7231,"MEAN_ANOMALY":52.303,"EPHEMERIS_TYPE":0,"CLASSIFICATION_TYPE":"U","NORAD_CAT_ID":55159,"ELEMENT_SET_NO":999,"REV_AT_EPOCH":16725,"BSTAR":0.00049587895,"MEAN_MOTION_DOT":8.547e-5,"MEAN_MOTION_DDOT":0}]
